id,region,suburb,postcode
1,Limestone Coast,KOPPAMURRA,5271
1,Limestone Coast,KRONGART,5278
1,Limestone Coast,KYBYBOLITE,5262
1,Limestone Coast,LAFFER,5267
1,Limestone Coast,LAURIE PARK,5271
1,Limestone Coast,LOCHABER,5271
1,Limestone Coast,LOWAN VALE,5268
1,Limestone Coast,LUCINDALE,5272
1,Limestone Coast,MAAOUPE,5277
1,Limestone Coast,MAGAREY,5280
1,Limestone Coast,MAKIN,5267
1,Limestone Coast,MARCOLLAT,5271
1,Limestone Coast,RACECOURSE BAY,5291
1,Limestone Coast,PORT MACDONNELL,5291
1,Limestone Coast,POOGINAGORIC,5268
1,Limestone Coast,PLEASANT PARK,5277
1,Limestone Coast,PINKS BEACH,5275
1,Limestone Coast,PINE HILL,5269
1,Limestone Coast,PETHERICK,5267
1,Limestone Coast,PENOLA,5277
1,Limestone Coast,PELICAN POINT,5291
1,Limestone Coast,PADTHAWAY,5271
1,Limestone Coast,OB FLAT,5291
1,Limestone Coast,NORA CREINA,5276
1,Limestone Coast,NENE VALLEY,5291
1,Limestone Coast,NARACOORTE,5271
1,Limestone Coast,NANGWARRY,5277
1,Limestone Coast,MUNDULLA WEST,5270
1,Limestone Coast,MUNDULLA,5270
1,Limestone Coast,MOYHALL,5271
1,Limestone Coast,MOUNT SCHANK,5291
1,Limestone Coast,MOUNT MCINTYRE,5279
1,Limestone Coast,MOUNT LIGHT,5271
1,Limestone Coast,MOUNT GAMBIER,5290
1,Limestone Coast,MOUNT CHARLES,5267
1,Limestone Coast,MOUNT BURR,5279
1,Limestone Coast,MOUNT BENSON,5275
1,Limestone Coast,MOORAK,5291
1,Limestone Coast,MONBULLA,5277
1,Limestone Coast,MOERLONG,5278
1,Limestone Coast,MINGBOOL,5291
1,Limestone Coast,MILLICENT,5280
1,Limestone Coast,MIL-LEL,5291
1,Limestone Coast,MCCALLUM,5267
1,Limestone Coast,CADGEE,5271
1,Limestone Coast,CANNAWIGARA,5268
1,Limestone Coast,CANUNDA,5280
1,Limestone Coast,CAPE DOUGLAS,5291
1,Limestone Coast,CAPE JAFFA,5275
1,Limestone Coast,CAREW,5270
1,Limestone Coast,CAROLINE,5291
1,Limestone Coast,CARPENTER ROCKS,5291
1,Limestone Coast,CAVETON,5291
1,Limestone Coast,CLAY WELLS,5280
1,Limestone Coast,COLES,5272
1,Limestone Coast,COMAUM,5277
1,Limestone Coast,COMPTON,5291
1,Limestone Coast,CONMURRA,5272
1,Limestone Coast,COONAWARRA,5263
1,Limestone Coast,CUSTON,5269
1,Limestone Coast,DISMAL SWAMP,5291
1,Limestone Coast,DONOVANS,5291
1,Limestone Coast,EIGHT MILE CREEK,5291
1,Limestone Coast,FOX,5272
1,Limestone Coast,YAHL,5291
1,Limestone Coast,WYOMI,5275
1,Limestone Coast,WYE,5291
1,Limestone Coast,WRATTONBULLY,5271
1,Limestone Coast,WORROLONG,5291
1,Limestone Coast,WOOLUMBOOL,5272
1,Limestone Coast,WOLSELEY,5269
1,Limestone Coast,WIRREGA,5267
1,Limestone Coast,WILLALOOKA,5267
1,Limestone Coast,WILD DOG VALLEY,5271
1,Limestone Coast,WESTERN FLAT,5268
1,Limestone Coast,WEST RANGE,5275
1,Limestone Coast,WEPAR,5278
1,Limestone Coast,WATTLE RANGE EAST,5279
1,Limestone Coast,WATTLE RANGE,5280
1,Limestone Coast,WANGOLINA,5275
1,Limestone Coast,WANDILO,5291
1,Limestone Coast,TILLEY SWAMP,5275
1,Limestone Coast,THORNLEA,5280
1,Limestone Coast,THE GAP,5271
1,Limestone Coast,TARPEENA,5277
1,Limestone Coast,TARATAP,5275
1,Limestone Coast,TANTANOOLA,5280
1,Limestone Coast,SWEDE FLAT,5270
1,Limestone Coast,SUTTONTOWN,5291
1,Limestone Coast,STRUAN,5271
1,Limestone Coast,STEWART RANGE,5271
1,Limestone Coast,SQUARE MILE,5291
1,Limestone Coast,SPENCE,5271
1,Limestone Coast,SOUTHEND,5280
1,Limestone Coast,SHORT,5279
1,Limestone Coast,SHERWOOD,5267
1,Limestone Coast,SHAUGH,5267
1,Limestone Coast,SENIOR,5268
1,Limestone Coast,SEBASTOPOL,5280
1,Limestone Coast,SANDY GROVE,5275
1,Limestone Coast,ROSETOWN,5275
1,Limestone Coast,ROCKY CAMP,5280
1,Limestone Coast,ROBE,5276
1,Limestone Coast,RENDELSHAM,5280
1,Limestone Coast,REEDY CREEK,5275
1,Limestone Coast,ALLENDALE EAST,5291
1,Limestone Coast,AVENUE RANGE,5273
1,Limestone Coast,BANGHAM,5268
1,Limestone Coast,BEACHPORT,5280
1,Limestone Coast,BINNUM,5262
1,Limestone Coast,BLACKFELLOWS CAVES,5291
1,Limestone Coast,BLACKFORD,5275
1,Limestone Coast,BOATSWAIN POINT,5275
1,Limestone Coast,BOOL LAGOON,5271
1,Limestone Coast,BORDERTOWN,5268
1,Limestone Coast,BORDERTOWN SOUTH,5268
1,Limestone Coast,BRAY,5276
1,Limestone Coast,BRIMBAGO,5267
1,Limestone Coast,BUCKINGHAM,5270
1,Limestone Coast,BURRUNGULE,5291
1,Limestone Coast,FRANCES,5262
1,Limestone Coast,FURNER,5280
1,Limestone Coast,GERMAN CREEK,5291
1,Limestone Coast,GERMAN FLAT,5280
1,Limestone Coast,GLENBURNIE,5291
1,Limestone Coast,GLENCOE,5291
1,Limestone Coast,GLENROY,5277
1,Limestone Coast,GREENWAYS,5272
1,Limestone Coast,HATHERLEIGH,5280
1,Limestone Coast,HYNAM,5262
1,Limestone Coast,JOANNA,5271
1,Limestone Coast,KALANGADOO,5278
1,Limestone Coast,KANGAROO INN,5280
1,Limestone Coast,KEILIRA,5275
1,Limestone Coast,KEITH,5267
1,Limestone Coast,KEPPOCH,5271
1,Limestone Coast,KINGSTON SE,5275
1,Limestone Coast,KONGAL,5270
1,Limestone Coast,KONGORONG,5291
1,Limestone Coast,KOORINE,5279
2,Murray and Mallee,SANDERSTON,5237
2,Murray and Mallee,SCHELL WELL,5311
2,Murray and Mallee,SEDAN,5353
2,Murray and Mallee,SHERLOCK,5301
2,Murray and Mallee,SPECTACLE LAKE,5345
2,Murray and Mallee,STEINFELD,5356
2,Murray and Mallee,WALKER FLAT,5238
2,Murray and Mallee,WAIKERIE,5330
2,Murray and Mallee,VEITCH,5311
2,Murray and Mallee,TUNGKILLO,5236
2,Murray and Mallee,TRURO,5356
2,Murray and Mallee,TOWITTA,5353
2,Murray and Mallee,TOORA,5253
2,Murray and Mallee,TINTINARA,5266
2,Murray and Mallee,TEPKO,5254
2,Murray and Mallee,TEAL FLAT,5238
2,Murray and Mallee,TAYLORVILLE STATION,5330
2,Murray and Mallee,TAYLORVILLE,5330
2,Murray and Mallee,TAPLAN,5311
2,Murray and Mallee,TALDRA,5311
2,Murray and Mallee,TAILEM BEND,5260
2,Murray and Mallee,SWANPORT,5253
2,Murray and Mallee,SWAN REACH,5354
2,Murray and Mallee,SUNNYSIDE,5253
2,Murray and Mallee,SUNNYDALE,5353
2,Murray and Mallee,SUNLANDS,5322
2,Murray and Mallee,STURT VALE,5417
2,Murray and Mallee,STUART,5320
2,Murray and Mallee,STOCKYARD PLAIN,5330
2,Murray and Mallee,BUNYUNG,5417
2,Murray and Mallee,BUNBURY,5266
2,Murray and Mallee,BUGLE HUT,5311
2,Murray and Mallee,BRINKLEY,5253
2,Murray and Mallee,BRENDA PARK,5320
2,Murray and Mallee,BOWHILL,5238
2,Murray and Mallee,BORRIKA,5309
2,Murray and Mallee,BOOLGUN,5330
2,Murray and Mallee,BOOKPURNONG,5333
2,Murray and Mallee,BOLTO,5238
2,Murray and Mallee,BLANCHETOWN,5357
2,Murray and Mallee,BLACK HILL,5353
2,Murray and Mallee,BILLIATT,5311
2,Murray and Mallee,BIG BEND,5238
2,Murray and Mallee,BERRI,5343
2,Murray and Mallee,FRAYVILLE,5238
2,Murray and Mallee,GALGA,5308
2,Murray and Mallee,GERANIUM,5301
2,Murray and Mallee,GERARD,5343
2,Murray and Mallee,GIFFORD HILL,5253
2,Murray and Mallee,GLOSSOP,5344
2,Murray and Mallee,GLUEPOT,5417
2,Murray and Mallee,GOLDEN HEIGHTS,5322
2,Murray and Mallee,GOOD HOPE LANDING,5330
2,Murray and Mallee,GREENBANKS,5253
2,Murray and Mallee,GURRA GURRA,5343
2,Murray and Mallee,HALIDON,5309
2,Murray and Mallee,HAWKS NEST STATION,5330
2,Murray and Mallee,HOLDER,5330
2,Murray and Mallee,HOLDER SIDING,5330
2,Murray and Mallee,JABUK,5301
2,Murray and Mallee,JERVOIS,5259
2,Murray and Mallee,JULANKA HOLDINGS,5238
2,Murray and Mallee,KANNI,5330
2,Murray and Mallee,KAROONDA,5307
2,Murray and Mallee,KARTE,5304
2,Murray and Mallee,KATARAPKO,5343
2,Murray and Mallee,KEPA,5259
2,Murray and Mallee,KEYNETON,5353
2,Murray and Mallee,ZADOWS LANDING,5254
2,Murray and Mallee,YUMALI,5261
2,Murray and Mallee,YOUNGHUSBAND HOLDINGS,5238
2,Murray and Mallee,YOUNGHUSBAND,5238
2,Murray and Mallee,YINKANIE,5332
2,Murray and Mallee,YAMBA,5340
2,Murray and Mallee,WYNARKA,5306
2,Murray and Mallee,WUNKAR,5311
2,Murray and Mallee,WOOLPUNDA,5330
2,Murray and Mallee,WOODS POINT,5253
2,Murray and Mallee,WOODLEIGH,5311
2,Murray and Mallee,WOODLANE,5254
2,Murray and Mallee,WONUARRA,5340
2,Murray and Mallee,WONGULLA,5238
2,Murray and Mallee,WOMBATS REST,5320
2,Murray and Mallee,WINKIE,5343
2,Murray and Mallee,WILLOW BANKS,5253
2,Murray and Mallee,WIGLEY FLAT,5330
2,Murray and Mallee,WHITE SANDS,5253
2,Murray and Mallee,WHITE HILL,5254
2,Murray and Mallee,WESTONS FLAT,5320
2,Murray and Mallee,WELLINGTON EAST,5259
2,Murray and Mallee,WELLINGTON,5259
2,Murray and Mallee,WARNES,5417
2,Murray and Mallee,WAPPILKA,5332
2,Murray and Mallee,WANBI,5310
2,Murray and Mallee,WALTOWA,5264
2,Murray and Mallee,WALL FLAT,5254
2,Murray and Mallee,KI KI,5261
2,Murray and Mallee,KINGSTON ON MURRAY,5331
2,Murray and Mallee,KRINGIN,5304
2,Murray and Mallee,LAKE ALBERT,5259
2,Murray and Mallee,LAKE ALEXANDRINA,5259
2,Murray and Mallee,LAKE CARLET,5238
2,Murray and Mallee,LAMEROO,5302
2,Murray and Mallee,LANGS LANDING,5353
2,Murray and Mallee,LINDLEY,5320
2,Murray and Mallee,LONG FLAT,5253
2,Murray and Mallee,LOVEDAY,5345
2,Murray and Mallee,LOWBANK,5330
2,Murray and Mallee,LOXTON,5333
2,Murray and Mallee,LOXTON NORTH,5333
2,Murray and Mallee,LYRUP,5343
2,Murray and Mallee,MAGGEA,5311
2,Murray and Mallee,MALINONG,5259
2,Murray and Mallee,MALPAS,5311
2,Murray and Mallee,MANNUM,5238
2,Murray and Mallee,MANTUNG,5308
2,Murray and Mallee,MARAMA,5307
2,Murray and Mallee,MARKARANKA,5330
2,Murray and Mallee,MARKS LANDING,5354
2,Murray and Mallee,MAUDE,5320
2,Murray and Mallee,MCBEAN POUND,5357
2,Murray and Mallee,MENINGIE,5264
2,Murray and Mallee,MENINGIE EAST,5264
2,Murray and Mallee,MENINGIE WEST,5264
2,Murray and Mallee,MERCUNDA,5308
2,Murray and Mallee,MERIBAH,5311
2,Murray and Mallee,MILENDELLA,5237
2,Murray and Mallee,MINDARIE,5309
2,Murray and Mallee,MOBILONG,5253
2,Murray and Mallee,MONARTO,5254
2,Murray and Mallee,MONARTO SOUTH,5254
2,Murray and Mallee,MONASH,5342
2,Murray and Mallee,MONTEITH,5254
2,Murray and Mallee,MOORLANDS,5301
2,Murray and Mallee,MOOROOK,5332
2,Murray and Mallee,MOOROOK SOUTH,5332
2,Murray and Mallee,MORGAN,5320
2,Murray and Mallee,MORPHETTS FLAT,5320
2,Murray and Mallee,MOUNT MARY,5374
2,Murray and Mallee,MULGUNDAWA,5255
2,Murray and Mallee,MUNDIC CREEK,5340
2,Murray and Mallee,MURBKO,5320
2,Murray and Mallee,MURRAWONG,5253
2,Murray and Mallee,MURRAY BRIDGE,5253
2,Murray and Mallee,MURRAY BRIDGE EAST,5253
2,Murray and Mallee,MURRAY BRIDGE NORTH,5253
2,Murray and Mallee,MURRAY BRIDGE SOUTH,5253
2,Murray and Mallee,MURTHO,5340
2,Murray and Mallee,MYPOLONGA,5254
2,Murray and Mallee,NAIDIA,5354
2,Murray and Mallee,NALPA,5255
2,Murray and Mallee,NARRUNG,5259
2,Murray and Mallee,NATURI,5259
2,Murray and Mallee,NETHERTON,5301
2,Murray and Mallee,NEW RESIDENCE,5333
2,Murray and Mallee,NEW WELL,5357
2,Murray and Mallee,NGARKAT,5302
2,Murray and Mallee,NILDOTTIE,5238
2,Murray and Mallee,NORTH WEST BEND,5320
2,Murray and Mallee,NORTHERN HEIGHTS,5253
2,Murray and Mallee,NOTTS WELL,5357
2,Murray and Mallee,OAKVALE STATION,5417
2,Murray and Mallee,OLD CALPERUM,5341
2,Murray and Mallee,OLD KOOMOOLOO,5417
2,Murray and Mallee,OLD TEAL FLAT,5238
2,Murray and Mallee,OVERLAND CORNER,5330
2,Murray and Mallee,PAISLEY,5357
2,Murray and Mallee,PALLAMANA,5254
2,Murray and Mallee,PALMER,5237
2,Murray and Mallee,PARCOOLA,5417
2,Murray and Mallee,PARILLA,5303
2,Murray and Mallee,PARINGA,5340
2,Murray and Mallee,PARRAKIE,5301
2,Murray and Mallee,PARUNA,5311
2,Murray and Mallee,PATA,5333
2,Murray and Mallee,PEAKE,5301
2,Murray and Mallee,PEEBINGA,5304
2,Murray and Mallee,PELLARING FLAT,5238
2,Murray and Mallee,PERPONDA,5308
2,Murray and Mallee,PIKE RIVER,5340
2,Murray and Mallee,PINE VALLEY STATION,5417
2,Murray and Mallee,PINNAROO,5304
2,Murray and Mallee,POLTALLOCH,5259
2,Murray and Mallee,POMPOOTA,5238
2,Murray and Mallee,PONDE,5238
2,Murray and Mallee,POOGINOOK,5330
2,Murray and Mallee,PORT MANNUM,5238
2,Murray and Mallee,PUNTHARI,5238
2,Murray and Mallee,PUNYELROO,5353
2,Murray and Mallee,PURNONG,5238
2,Murray and Mallee,PYAP,5333
2,Murray and Mallee,PYAP WEST,5333
2,Murray and Mallee,QUALCO,5322
2,Murray and Mallee,QUONDONG,5417
2,Murray and Mallee,RAMCO,5322
2,Murray and Mallee,RAMCO HEIGHTS,5322
2,Murray and Mallee,RENMARK,5341
2,Murray and Mallee,RENMARK NORTH,5341
2,Murray and Mallee,RENMARK SOUTH,5341
2,Murray and Mallee,RENMARK WEST,5341
2,Murray and Mallee,RIVERGLADES,5253
2,Murray and Mallee,RIVERGLEN,5253
2,Murray and Mallee,ROCKLEIGH,5254
2,Murray and Mallee,ROCKY GULLY,5254
2,Murray and Mallee,ROCKY POINT,5238
2,Murray and Mallee,SALT CREEK,5264
2,Murray and Mallee,SANDALWOOD,5309
2,Murray and Mallee,SANDLETON,5356
2,Murray and Mallee,BEAUMONTS,5320
2,Murray and Mallee,BEATTY,5320
2,Murray and Mallee,BARMERA,5345
2,Murray and Mallee,BALAH,5417
2,Murray and Mallee,BAKARA WELL,5354
2,Murray and Mallee,BAKARA,5354
2,Murray and Mallee,AVOCA DELL,5253
2,Murray and Mallee,ASHVILLE,5259
2,Murray and Mallee,APAMURRA,5237
2,Murray and Mallee,ANNADALE,5356
2,Murray and Mallee,ANGAS VALLEY,5238
2,Murray and Mallee,ALAWOONA,5311
2,Murray and Mallee,BURDETT,5253
2,Murray and Mallee,CADELL,5321
2,Murray and Mallee,CADELL LAGOON,5321
2,Murray and Mallee,CALIPH,5310
2,Murray and Mallee,CALLINGTON,5254
2,Murray and Mallee,CALOOTE,5254
2,Murray and Mallee,CALPERUM STATION,5341
2,Murray and Mallee,CAMBRAI,5353
2,Murray and Mallee,CANEGRASS,5417
2,Murray and Mallee,CARCUMA,5301
2,Murray and Mallee,CAURNAMONT,5238
2,Murray and Mallee,CHAFFEY,5341
2,Murray and Mallee,CHAPMAN BORE,5253
2,Murray and Mallee,CHOWILLA,5341
2,Murray and Mallee,CLAYPANS,5238
2,Murray and Mallee,COBDOGLA,5346
2,Murray and Mallee,COLEBATCH,5266
2,Murray and Mallee,COOKE PLAINS,5261
2,Murray and Mallee,COOLTONG,5341
2,Murray and Mallee,COOMANDOOK,5261
2,Murray and Mallee,COOMBE,5267
2,Murray and Mallee,COONALPYN,5265
2,Murray and Mallee,COORONG,5264
2,Murray and Mallee,COPEVILLE,5308
2,Murray and Mallee,COWIRRA,5238
2,Murray and Mallee,CRESCENT,5341
2,Murray and Mallee,CULBURRA,5261
2,Murray and Mallee,DANGGALI,5417
2,Murray and Mallee,DEEPWATER,5266
2,Murray and Mallee,DEVLINS POUND,5330
2,Murray and Mallee,DUTTON EAST,5356
2,Murray and Mallee,EBA,5320
2,Murray and Mallee,ELWOMPLE,5260
2,Murray and Mallee,ETTRICK,5253
2,Murray and Mallee,FARAWAY HILL,5417
2,Murray and Mallee,FIELD,5265
2,Murray and Mallee,FISHER,5354
2,Murray and Mallee,FIVE MILES,5238
2,Murray and Mallee,FORSTER,5238
2,Murray and Mallee,FRAHNS,5238
3,Eastern Adelaide,PARADISE,5075
3,Eastern Adelaide,PARKSIDE,5063
3,Eastern Adelaide,PAYNEHAM,5070
3,Eastern Adelaide,PAYNEHAM SOUTH,5070
3,Eastern Adelaide,HECTORVILLE,5073
3,Eastern Adelaide,HEATHPOOL,5068
3,Eastern Adelaide,HAZELWOOD PARK,5066
3,Eastern Adelaide,HACKNEY,5069
3,Eastern Adelaide,GOODWOOD,5034
3,Eastern Adelaide,GLYNDE,5070
3,Eastern Adelaide,GLENUNGA,5064
3,Eastern Adelaide,GLENSIDE,5065
3,Eastern Adelaide,GLEN OSMOND,5064
3,Eastern Adelaide,GILBERTON,5081
3,Eastern Adelaide,FULLARTON,5063
3,Eastern Adelaide,FREWVILLE,5063
3,Eastern Adelaide,FORESTVILLE,5035
3,Eastern Adelaide,FITZROY,5082
3,Eastern Adelaide,WAYVILLE,5034
3,Eastern Adelaide,WATTLE PARK,5066
3,Eastern Adelaide,WATERFALL GULLY,5066
3,Eastern Adelaide,WALKERVILLE,5081
3,Eastern Adelaide,VALE PARK,5081
3,Eastern Adelaide,UNLEY PARK,5061
3,Eastern Adelaide,UNLEY,5061
3,Eastern Adelaide,TUSMORE,5065
3,Eastern Adelaide,TRINITY GARDENS,5068
3,Eastern Adelaide,TRANMERE,5073
3,Eastern Adelaide,TOORAK GARDENS,5065
3,Eastern Adelaide,THORNGATE,5082
3,Eastern Adelaide,STONYFELL,5066
3,Eastern Adelaide,STEPNEY,5069
3,Eastern Adelaide,ST PETERS,5069
3,Eastern Adelaide,ST MORRIS,5068
3,Eastern Adelaide,ST GEORGES,5064
3,Eastern Adelaide,SKYE,5072
3,Eastern Adelaide,ROYSTON PARK,5070
3,Eastern Adelaide,ROSTREVOR,5073
3,Eastern Adelaide,ROSSLYN PARK,5072
3,Eastern Adelaide,ROSE PARK,5067
3,Eastern Adelaide,PROSPECT,5082
3,Eastern Adelaide,FIRLE,5070
3,Eastern Adelaide,FELIXSTOW,5070
3,Eastern Adelaide,EVERARD PARK,5035
3,Eastern Adelaide,EVANDALE,5069
3,Eastern Adelaide,ERINDALE,5066
3,Eastern Adelaide,EASTWOOD,5063
3,Eastern Adelaide,DULWICH,5065
3,Eastern Adelaide,COLLINSWOOD,5081
3,Eastern Adelaide,COLLEGE PARK,5069
3,Eastern Adelaide,CLARENCE PARK,5034
3,Eastern Adelaide,CAMPBELLTOWN,5074
3,Eastern Adelaide,BURNSIDE,5066
3,Eastern Adelaide,BLACK FOREST,5035
3,Eastern Adelaide,BEULAH PARK,5067
3,Eastern Adelaide,BEAUMONT,5066
3,Eastern Adelaide,AULDANA,5072
3,Eastern Adelaide,ATHELSTONE,5076
3,Eastern Adelaide,ADELAIDE,5000
3,Eastern Adelaide,HYDE PARK,5061
3,Eastern Adelaide,JOSLIN,5070
3,Eastern Adelaide,KENSINGTON,5068
3,Eastern Adelaide,KENSINGTON GARDENS,5068
3,Eastern Adelaide,KENSINGTON PARK,5068
3,Eastern Adelaide,KENT TOWN,5067
3,Eastern Adelaide,KINGS PARK,5034
3,Eastern Adelaide,LEABROOK,5068
3,Eastern Adelaide,LINDEN PARK,5065
3,Eastern Adelaide,MAGILL,5072
3,Eastern Adelaide,MALVERN,5061
3,Eastern Adelaide,MARDEN,5070
3,Eastern Adelaide,MARRYATVILLE,5068
3,Eastern Adelaide,MAYLANDS,5069
3,Eastern Adelaide,MEDINDIE,5081
3,Eastern Adelaide,MEDINDIE GARDENS,5081
3,Eastern Adelaide,MILLSWOOD,5034
3,Eastern Adelaide,MOUNT OSMOND,5064
3,Eastern Adelaide,MYRTLE BANK,5064
3,Eastern Adelaide,NAILSWORTH,5083
3,Eastern Adelaide,NEWTON,5074
3,Eastern Adelaide,HIGHGATE,5063
3,Eastern Adelaide,NORTH ADELAIDE,5006
3,Eastern Adelaide,NORWOOD,5067
4,Adelaide Hills,MOUNT BARKER SPRINGS,5251
4,Adelaide Hills,ALDGATE,5154
4,Adelaide Hills,ASHTON,5137
4,Adelaide Hills,BALHANNAH,5242
4,Adelaide Hills,BASKET RANGE,5138
4,Adelaide Hills,BIGGS FLAT,5153
4,Adelaide Hills,BIRDWOOD,5234
4,Adelaide Hills,BLAKISTON,5250
4,Adelaide Hills,BRADBURY,5153
4,Adelaide Hills,BRIDGEWATER,5155
4,Adelaide Hills,BRUKUNGA,5252
4,Adelaide Hills,BUGLE RANGES,5251
4,Adelaide Hills,BULL CREEK,5157
4,Adelaide Hills,CAREY GULLY,5144
4,Adelaide Hills,CASTAMBUL,5076
4,Adelaide Hills,CHAIN OF PONDS,5231
4,Adelaide Hills,CHAPEL HILL,5153
4,Adelaide Hills,CHARLESTON,5244
4,Adelaide Hills,CHERRYVILLE,5134
4,Adelaide Hills,CLELAND,5152
4,Adelaide Hills,CRAFERS,5152
4,Adelaide Hills,CRAFERS WEST,5152
4,Adelaide Hills,CUDLEE CREEK,5232
4,Adelaide Hills,DAWESLEY,5252
4,Adelaide Hills,DORSET VALE,5157
4,Adelaide Hills,ECHUNGA,5153
4,Adelaide Hills,FLAXLEY,5153
4,Adelaide Hills,FOREST RANGE,5139
4,Adelaide Hills,FORRESTON,5233
4,Adelaide Hills,GREEN HILLS RANGE,5153
4,Adelaide Hills,GREENHILL,5140
4,Adelaide Hills,GUMERACHA,5233
4,Adelaide Hills,HAHNDORF,5245
4,Adelaide Hills,HARROGATE,5244
4,Adelaide Hills,HAY VALLEY,5252
4,Adelaide Hills,HEATHFIELD,5153
4,Adelaide Hills,HORSNELL GULLY,5141
4,Adelaide Hills,HOUGHTON,5131
4,Adelaide Hills,INGLEWOOD,5133
4,Adelaide Hills,IRONBANK,5153
4,Adelaide Hills,JUPITER CREEK,5153
4,Adelaide Hills,KANMANTOO,5252
4,Adelaide Hills,WOODSIDE,5244
4,Adelaide Hills,WOODFORDE,5072
4,Adelaide Hills,WISTOW,5251
4,Adelaide Hills,VERDUN,5245
4,Adelaide Hills,URAIDLA,5142
4,Adelaide Hills,MOUNT BARKER SUMMIT,5251
4,Adelaide Hills,MOUNT GEORGE,5155
4,Adelaide Hills,MOUNT TORRENS,5244
4,Adelaide Hills,MYLOR,5153
4,Adelaide Hills,NAIRNE,5252
4,Adelaide Hills,NORTON SUMMIT,5136
4,Adelaide Hills,OAKBANK,5243
4,Adelaide Hills,PAECHTOWN,5245
4,Adelaide Hills,PARACOMBE,5132
4,Adelaide Hills,PETWOOD,5254
4,Adelaide Hills,PICCADILLY,5151
4,Adelaide Hills,PROSPECT HILL,5201
4,Adelaide Hills,KENTON VALLEY,5233
4,Adelaide Hills,KERSBROOK,5231
4,Adelaide Hills,LENSWOOD,5240
4,Adelaide Hills,LITTLEHAMPTON,5250
4,Adelaide Hills,LOBETHAL,5241
4,Adelaide Hills,LONGWOOD,5153
4,Adelaide Hills,LOWER HERMITAGE,5131
4,Adelaide Hills,SCOTT CREEK,5153
4,Adelaide Hills,ST IVES,5252
4,Adelaide Hills,STIRLING,5152
4,Adelaide Hills,SUMMERTOWN,5141
4,Adelaide Hills,TERINGIE,5072
4,Adelaide Hills,TOTNESS,5250
4,Adelaide Hills,UPPER HERMITAGE,5131
4,Adelaide Hills,UPPER STURT,5156
4,Adelaide Hills,MACCLESFIELD,5153
4,Adelaide Hills,MARBLE HILL,5137
4,Adelaide Hills,MEADOWS,5201
4,Adelaide Hills,MILLBROOK,5231
4,Adelaide Hills,MONTACUTE,5134
4,Adelaide Hills,MOUNT BARKER,5251
4,Adelaide Hills,MOUNT BARKER JUNCTION,5251
5,Southern Adelaide,WESTBOURNE PARK,5041
5,Southern Adelaide,LEAWOOD GARDENS,5150
5,Southern Adelaide,LONSDALE,5160
5,Southern Adelaide,LOWER MITCHAM,5062
5,Southern Adelaide,LYNTON,5062
5,Southern Adelaide,MARINO,5049
5,Southern Adelaide,MARION,5043
5,Southern Adelaide,MASLIN BEACH,5170
5,Southern Adelaide,MCLAREN FLAT,5171
5,Southern Adelaide,MCLAREN VALE,5171
5,Southern Adelaide,MELROSE PARK,5039
5,Southern Adelaide,MITCHAM,5062
5,Southern Adelaide,MITCHELL PARK,5043
5,Southern Adelaide,MOANA,5169
5,Southern Adelaide,MORPHETT VALE,5162
5,Southern Adelaide,MORPHETTVILLE,5043
5,Southern Adelaide,NETHERBY,5062
5,Southern Adelaide,NOARLUNGA CENTRE,5168
5,Southern Adelaide,NOARLUNGA DOWNS,5168
5,Southern Adelaide,NORTH BRIGHTON,5048
5,Southern Adelaide,OAKLANDS PARK,5046
5,Southern Adelaide,O'HALLORAN HILL,5158
5,Southern Adelaide,OLD NOARLUNGA,5168
5,Southern Adelaide,OLD REYNELLA,5161
5,Southern Adelaide,ONKAPARINGA HILLS,5163
5,Southern Adelaide,O'SULLIVAN BEACH,5166
5,Southern Adelaide,PANORAMA,5041
5,Southern Adelaide,PARK HOLME,5043
5,Southern Adelaide,PASADENA,5042
5,Southern Adelaide,PLYMPTON PARK,5038
5,Southern Adelaide,PORT NOARLUNGA,5167
5,Southern Adelaide,PORT NOARLUNGA SOUTH,5167
5,Southern Adelaide,PORT WILLUNGA,5173
5,Southern Adelaide,REYNELLA,5161
5,Southern Adelaide,REYNELLA EAST,5161
5,Southern Adelaide,SEACLIFF,5049
5,Southern Adelaide,SEACLIFF PARK,5049
5,Southern Adelaide,SEACOMBE GARDENS,5047
5,Southern Adelaide,SEACOMBE HEIGHTS,5047
5,Southern Adelaide,SEAFORD,5169
5,Southern Adelaide,SEAFORD HEIGHTS,5169
5,Southern Adelaide,SEAFORD MEADOWS,5169
5,Southern Adelaide,SEAFORD RISE,5169
5,Southern Adelaide,SEAVIEW DOWNS,5049
5,Southern Adelaide,SELLICKS BEACH,5174
5,Southern Adelaide,SELLICKS HILL,5174
5,Southern Adelaide,SHEIDOW PARK,5158
5,Southern Adelaide,SOMERTON PARK,5044
5,Southern Adelaide,SOUTH BRIGHTON,5048
5,Southern Adelaide,SOUTH PLYMPTON,5038
5,Southern Adelaide,SPRINGFIELD,5062
5,Southern Adelaide,ST MARYS,5042
5,Southern Adelaide,STURT,5047
5,Southern Adelaide,TATACHILLA,5171
5,Southern Adelaide,THE RANGE,5172
5,Southern Adelaide,TONSLEY,5042
5,Southern Adelaide,TORRENS PARK,5062
5,Southern Adelaide,TROTT PARK,5158
5,Southern Adelaide,URRBRAE,5064
5,Southern Adelaide,WARRADALE,5046
5,Southern Adelaide,WHITES VALLEY,5172
5,Southern Adelaide,WILLUNGA,5172
5,Southern Adelaide,WILLUNGA SOUTH,5172
5,Southern Adelaide,WOODCROFT,5162
5,Southern Adelaide,ABERFOYLE PARK,5159
5,Southern Adelaide,ALDINGA,5173
5,Southern Adelaide,ALDINGA BEACH,5173
5,Southern Adelaide,ASCOT PARK,5043
5,Southern Adelaide,BEDFORD PARK,5042
5,Southern Adelaide,BELAIR,5052
5,Southern Adelaide,BELLEVUE HEIGHTS,5050
5,Southern Adelaide,BLACKWOOD,5051
5,Southern Adelaide,BLEWITT SPRINGS,5171
5,Southern Adelaide,BRIGHTON,5048
5,Southern Adelaide,BROWN HILL CREEK,5062
5,Southern Adelaide,CHANDLERS HILL,5159
5,Southern Adelaide,CHERRY GARDENS,5157
5,Southern Adelaide,CHRISTIE DOWNS,5164
5,Southern Adelaide,CHRISTIES BEACH,5165
5,Southern Adelaide,CLAPHAM,5062
5,Southern Adelaide,CLARENCE GARDENS,5039
5,Southern Adelaide,CLARENDON,5157
5,Southern Adelaide,CLOVELLY PARK,5042
5,Southern Adelaide,COLONEL LIGHT GARDENS,5041
5,Southern Adelaide,COROMANDEL EAST,5157
5,Southern Adelaide,COROMANDEL VALLEY,5051
5,Southern Adelaide,CRAIGBURN FARM,5051
5,Southern Adelaide,CUMBERLAND PARK,5041
5,Southern Adelaide,DARLINGTON,5047
5,Southern Adelaide,DAW PARK,5041
5,Southern Adelaide,DOVER GARDENS,5048
5,Southern Adelaide,EDEN HILLS,5050
5,Southern Adelaide,EDWARDSTOWN,5039
5,Southern Adelaide,FLAGSTAFF HILL,5159
5,Southern Adelaide,GLANDORE,5037
5,Southern Adelaide,GLENALTA,5052
5,Southern Adelaide,GLENELG,5045
5,Southern Adelaide,GLENELG EAST,5045
5,Southern Adelaide,GLENELG NORTH,5045
5,Southern Adelaide,GLENELG SOUTH,5045
5,Southern Adelaide,GLENGOWRIE,5044
5,Southern Adelaide,HACKHAM,5163
5,Southern Adelaide,HACKHAM WEST,5163
5,Southern Adelaide,HALLETT COVE,5158
5,Southern Adelaide,HAPPY VALLEY,5159
5,Southern Adelaide,HAWTHORN,5062
5,Southern Adelaide,HAWTHORNDENE,5051
5,Southern Adelaide,HOVE,5048
5,Southern Adelaide,HUNTFIELD HEIGHTS,5163
5,Southern Adelaide,KANGARILLA,5157
5,Southern Adelaide,KINGSTON PARK,5049
5,Southern Adelaide,KINGSWOOD,5062
6,Western Adelaide,CAMDEN PARK,5038
6,Western Adelaide,CHELTENHAM,5014
6,Western Adelaide,COWANDILLA,5033
6,Western Adelaide,CROYDON,5008
6,Western Adelaide,CROYDON PARK,5008
6,Western Adelaide,DEVON PARK,5008
6,Western Adelaide,DUDLEY PARK,5008
6,Western Adelaide,ETHELTON,5015
6,Western Adelaide,EXETER,5019
6,Western Adelaide,FERRYDEN PARK,5010
6,Western Adelaide,FINDON,5023
6,Western Adelaide,FLINDERS PARK,5025
6,Western Adelaide,FULHAM,5024
6,Western Adelaide,FULHAM GARDENS,5024
6,Western Adelaide,GARDEN ISLAND,5960
6,Western Adelaide,GILLMAN,5013
6,Western Adelaide,GLANVILLE,5015
6,Western Adelaide,GRANGE,5022
6,Western Adelaide,HENDON,5014
6,Western Adelaide,HENLEY BEACH,5022
6,Western Adelaide,HENLEY BEACH SOUTH,5022
6,Western Adelaide,HILTON,5033
6,Western Adelaide,HINDMARSH,5007
6,Western Adelaide,KESWICK,5035
6,Western Adelaide,KESWICK TERMINAL,5035
6,Western Adelaide,KIDMAN PARK,5025
6,Western Adelaide,KILKENNY,5009
6,Western Adelaide,KURRALTA PARK,5037
6,Western Adelaide,LARGS BAY,5016
6,Western Adelaide,LARGS NORTH,5016
6,Western Adelaide,LOCKLEYS,5032
6,Western Adelaide,MANSFIELD PARK,5012
6,Western Adelaide,MARLESTON,5033
6,Western Adelaide,MILE END,5031
6,Western Adelaide,MILE END SOUTH,5031
6,Western Adelaide,NETLEY,5037
6,Western Adelaide,NEW PORT,5015
6,Western Adelaide,NORTH HAVEN,5018
6,Western Adelaide,NORTH PLYMPTON,5037
6,Western Adelaide,NOVAR GARDENS,5040
6,Western Adelaide,OSBORNE,5017
6,Western Adelaide,OTTOWAY,5013
6,Western Adelaide,OUTER HARBOR,5018
6,Western Adelaide,OVINGHAM,5082
6,Western Adelaide,PENNINGTON,5013
6,Western Adelaide,PETERHEAD,5016
6,Western Adelaide,PLYMPTON,5038
6,Western Adelaide,WOODVILLE PARK,5011
6,Western Adelaide,WOODVILLE SOUTH,5011
6,Western Adelaide,WOODVILLE WEST,5011
6,Western Adelaide,ST CLAIR,5011
6,Western Adelaide,TAPEROO,5017
6,Western Adelaide,TENNYSON,5022
6,Western Adelaide,THEBARTON,5031
6,Western Adelaide,TORRENS ISLAND,5960
6,Western Adelaide,TORRENSVILLE,5031
6,Western Adelaide,UNDERDALE,5032
6,Western Adelaide,WELLAND,5007
6,Western Adelaide,WEST BEACH,5024
6,Western Adelaide,WEST CROYDON,5008
6,Western Adelaide,WEST HINDMARSH,5007
6,Western Adelaide,WEST LAKES,5021
6,Western Adelaide,WEST LAKES SHORE,5020
6,Western Adelaide,WEST RICHMOND,5033
6,Western Adelaide,WINGFIELD,5013
6,Western Adelaide,WOODVILLE,5011
6,Western Adelaide,WOODVILLE GARDENS,5012
6,Western Adelaide,WOODVILLE NORTH,5012
6,Western Adelaide,PORT ADELAIDE,5015
6,Western Adelaide,QUEENSTOWN,5014
6,Western Adelaide,REGENCY PARK,5010
6,Western Adelaide,RENOWN PARK,5008
6,Western Adelaide,RICHMOND,5033
6,Western Adelaide,RIDLEYTON,5008
6,Western Adelaide,ROSEWATER,5013
6,Western Adelaide,ROYAL PARK,5014
6,Western Adelaide,SEATON,5023
6,Western Adelaide,SEMAPHORE,5019
6,Western Adelaide,SEMAPHORE PARK,5019
6,Western Adelaide,SEMAPHORE SOUTH,5019
6,Western Adelaide,ADELAIDE AIRPORT,5950
6,Western Adelaide,ALBERT PARK,5014
6,Western Adelaide,ALBERTON,5014
6,Western Adelaide,ALLENBY GARDENS,5009
6,Western Adelaide,ANGLE PARK,5010
6,Western Adelaide,ASHFORD,5035
6,Western Adelaide,ATHOL PARK,5012
6,Western Adelaide,BEVERLEY,5009
6,Western Adelaide,BIRKENHEAD,5015
6,Western Adelaide,BOWDEN,5007
6,Western Adelaide,BROMPTON,5007
6,Western Adelaide,BROOKLYN PARK,5032
7,Eyre and Western,MOODY,5607
7,Eyre and Western,MITCHIDY MOOLA,5690
7,Eyre and Western,MITCHELLVILLE,5602
7,Eyre and Western,MITCHELL,5632
7,Eyre and Western,MINNIPA,5654
7,Eyre and Western,MINBRIE,5602
7,Eyre and Western,MILTALIE,5602
7,Eyre and Western,MIDGEE,5602
7,Eyre and Western,MERGHINY,5690
7,Eyre and Western,MARYVALE,5680
7,Eyre and Western,MANGALO,5602
7,Eyre and Western,MALTEE,5690
7,Eyre and Western,LUCKY BAY,5602
7,Eyre and Western,LOUTH BAY,5607
7,Eyre and Western,LOCK,5633
7,Eyre and Western,LITTLE DOUGLAS,5607
7,Eyre and Western,LIPSON,5607
7,Eyre and Western,LINCOLN NATIONAL PARK,5607
7,Eyre and Western,LAURA BAY,5680
7,Eyre and Western,KYANCUTTA,5651
7,Eyre and Western,KOPPIO,5607
7,Eyre and Western,KOONIBBA,5690
7,Eyre and Western,KOONGAWA,5650
7,Eyre and Western,KOOLGERA,5661
7,Eyre and Western,KIMBA,5641
7,Eyre and Western,KIELPA,5642
7,Eyre and Western,KIANA,5607
7,Eyre and Western,KELLY,5641
7,Eyre and Western,KELLIDIE BAY,5607
7,Eyre and Western,KARKOO,5632
7,Eyre and Western,KARCULTABY,5654
7,Eyre and Western,KAPPAWANTA,5670
7,Eyre and Western,KAPINNIE,5632
7,Eyre and Western,KALDOONERA,5655
7,Eyre and Western,KALANBI,5690
7,Eyre and Western,JAMIESON,5640
7,Eyre and Western,INKSTER,5680
7,Eyre and Western,HINCKS,5603
7,Eyre and Western,HAWSON,5607
7,Eyre and Western,HASLAM,5680
7,Eyre and Western,HAMBIDGE,5642
7,Eyre and Western,GREEN PATCH,5607
7,Eyre and Western,FOWLERS BAY,5690
7,Eyre and Western,FOUNTAIN,5607
7,Eyre and Western,FITZGERALD BAY,5601
7,Eyre and Western,FARM BEACH,5607
7,Eyre and Western,FALSE BAY,5601
7,Eyre and Western,ELLISTON,5670
7,Eyre and Western,EDILLILIE,5630
7,Eyre and Western,EBA ANCHORAGE,5680
7,Eyre and Western,DUCK PONDS,5607
7,Eyre and Western,DOUGLAS POINT SOUTH,5601
7,Eyre and Western,DOUGLAS POINT,5601
7,Eyre and Western,DENIAL BAY,5690
7,Eyre and Western,DARKE PEAK,5642
7,Eyre and Western,CUNYARIE,5641
7,Eyre and Western,WILCHERRY,5641
7,Eyre and Western,WHYALLA STUART,5608
7,Eyre and Western,WHYALLA PLAYFORD,5600
7,Eyre and Western,WHYALLA NORRIE,5608
7,Eyre and Western,WHYALLA JENKINS,5609
7,Eyre and Western,WHYALLA BARSON,5601
7,Eyre and Western,WHYALLA,5600
7,Eyre and Western,WHITES RIVER,5607
7,Eyre and Western,WHITES FLAT,5607
7,Eyre and Western,WHITE WELL CORNER,5690
7,Eyre and Western,ULYERRA,5633
7,Eyre and Western,ULEY,5607
7,Eyre and Western,TYRINGA,5671
7,Eyre and Western,TUMBY BAY,5605
7,Eyre and Western,TULKA,5607
7,Eyre and Western,TOOTENILLA,5607
7,Eyre and Western,TOOLIGIE,5607
7,Eyre and Western,TIATUKIA,5607
7,Eyre and Western,THEVENARD,5690
7,Eyre and Western,TALIA,5670
7,Eyre and Western,STREAKY BAY,5680
7,Eyre and Western,SOLOMON,5641
7,Eyre and Western,SMOKY BAY,5680
7,Eyre and Western,CUNGENA,5660
7,Eyre and Western,CUMMINS,5631
7,Eyre and Western,COWLEDS LANDING,5601
7,Eyre and Western,COWELL,5602
7,Eyre and Western,COULTA,5607
7,Eyre and Western,CORTLINYE,5641
7,Eyre and Western,COOTRA,5650
7,Eyre and Western,YUMBARRA,5690
7,Eyre and Western,YELLABINNA,5690
7,Eyre and Western,YEELANNA,5632
7,Eyre and Western,YANTANABIE,5661
7,Eyre and Western,YANINEE,5653
7,Eyre and Western,YANERBIE,5680
7,Eyre and Western,YALLUNDA FLAT,5607
7,Eyre and Western,YALATA,5690
7,Eyre and Western,COORABIE,5690
7,Eyre and Western,YALANDA,5641
7,Eyre and Western,WUDINNA,5652
7,Eyre and Western,SLEAFORD,5607
7,Eyre and Western,WITERA,5671
7,Eyre and Western,SHERINGA,5607
7,Eyre and Western,SCEALE BAY,5680
7,Eyre and Western,RUDALL,5642
7,Eyre and Western,PYGERY,5652
7,Eyre and Western,PUNTABIE,5680
7,Eyre and Western,PORT NEILL,5604
7,Eyre and Western,PORT LINCOLN,5606
7,Eyre and Western,CALCA,5671
7,Eyre and Western,BUTLER,5605
7,Eyre and Western,BROOKER,5607
7,Eyre and Western,BRAMFIELD,5670
7,Eyre and Western,BOSTON,5607
7,Eyre and Western,BOONERDO,5633
7,Eyre and Western,BOOKABIE,5690
7,Eyre and Western,BOCKELBERG,5655
7,Eyre and Western,BARNA,5641
7,Eyre and Western,BAIRD BAY,5671
7,Eyre and Western,BACKY POINT,5601
7,Eyre and Western,ARNO BAY,5603
7,Eyre and Western,POINT LOWLY,5601
7,Eyre and Western,POINT BOSTON,5607
7,Eyre and Western,PINKAWILLINIE,5641
7,Eyre and Western,PIMBAACLA,5661
7,Eyre and Western,PIEDNIPPIE,5680
7,Eyre and Western,PETINA,5680
7,Eyre and Western,PERLUBIE,5680
7,Eyre and Western,PENONG,5690
7,Eyre and Western,PEARLAH,5607
7,Eyre and Western,PANITYA,5641
7,Eyre and Western,PALKAGEE,5670
7,Eyre and Western,OAK VALLEY,5690
7,Eyre and Western,NUNJIKOMPITA,5680
7,Eyre and Western,NULLARBOR,5690
7,Eyre and Western,NORTH SHIELDS,5607
7,Eyre and Western,PORT KENNY,5671
7,Eyre and Western,PORT GIBBON,5602
7,Eyre and Western,PORT BONYTHON,5601
7,Eyre and Western,POONINDIE,5607
7,Eyre and Western,POOCHERA,5655
7,Eyre and Western,POLDA,5670
7,Eyre and Western,POINT LOWLY NORTH,5601
7,Eyre and Western,CHARLTON GULLY,5607
7,Eyre and Western,CHANDADA,5680
7,Eyre and Western,CEDUNA WATERS,5690
7,Eyre and Western,CEDUNA,5690
7,Eyre and Western,CARAWA,5680
7,Eyre and Western,CARALUE,5641
7,Eyre and Western,CAMPOONA,5640
7,Eyre and Western,WHARMINDA,5603
7,Eyre and Western,WESTALL,5680
7,Eyre and Western,WEDGE ISLAND,5606
7,Eyre and Western,WATRABA,5690
7,Eyre and Western,WIRRULLA,5661
7,Eyre and Western,WARRAMBOO,5650
7,Eyre and Western,WANILLA,5607
7,Eyre and Western,WANGARY,5607
7,Eyre and Western,WANDANA,5690
7,Eyre and Western,WALLALA,5661
7,Eyre and Western,WADDIKEE,5640
7,Eyre and Western,VERRAN,5603
7,Eyre and Western,VENUS BAY,5607
7,Eyre and Western,UWORRA,5690
7,Eyre and Western,UNGARRA,5607
7,Eyre and Western,COOMUNGA,5607
7,Eyre and Western,COOLILLIE,5670
7,Eyre and Western,COLTON,5670
7,Eyre and Western,COLLEY,5671
7,Eyre and Western,COFFIN BAY,5607
7,Eyre and Western,COCKALEECHIE,5631
7,Eyre and Western,COCATA,5654
7,Eyre and Western,CLEVE,5640
7,Eyre and Western,CHUNDARIA,5690
7,Eyre and Western,CHINBINGINA,5680
7,Eyre and Western,CHILPENUNDA,5660
7,Eyre and Western,CHARRA,5690
7,Eyre and Western,NANBONA,5690
7,Eyre and Western,NADIA,5690
7,Eyre and Western,MURNINNIE BEACH,5601
7,Eyre and Western,MURLONG,5642
7,Eyre and Western,MURDINGA,5607
7,Eyre and Western,MULLAQUANA,5601
7,Eyre and Western,MUDAMUCKLA,5680
7,Eyre and Western,MOUNT WEDGE,5670
7,Eyre and Western,MOUNT JOY,5670
7,Eyre and Western,MOUNT HOPE,5607
7,Eyre and Western,MOUNT DUTTON BAY,5607
7,Eyre and Western,MOUNT DRUMMOND,5607
7,Eyre and Western,MOUNT DAMPER,5654
7,Eyre and Western,MOUNT COOPER,5671
7,Eyre and Western,MOSELEY,5641
7,Eyre and Western,MORTANA,5671
8,Yorke and Mid North,WILLAMULKA,5554
8,Yorke and Mid North,WILLOWIE,5431
8,Yorke and Mid North,WILMINGTON,5485
8,Yorke and Mid North,WINULTA,5570
8,Yorke and Mid North,WIRRABARA,5481
8,Yorke and Mid North,WOKURNA,5520
8,Yorke and Mid North,WONGYARRA,5481
8,Yorke and Mid North,WONNA,5419
8,Yorke and Mid North,WOOL BAY,5575
8,Yorke and Mid North,WOOLSHED FLAT,5412
8,Yorke and Mid North,WOOLUNDUNGA,5701
8,Yorke and Mid North,WORLDS END,5381
8,Yorke and Mid North,YACKA,5470
8,Yorke and Mid North,YALPARA,5431
8,Yorke and Mid North,YANYARRIE,5432
8,Yorke and Mid North,YATINA,5422
8,Yorke and Mid North,YELTA,5558
8,Yorke and Mid North,YONGALA,5493
8,Yorke and Mid North,YORKE VALLEY,5573
8,Yorke and Mid North,YORKETOWN,5576
8,Yorke and Mid North,AGERY,5558
8,Yorke and Mid North,ALFORD,5555
8,Yorke and Mid North,ALMA,5401
8,Yorke and Mid North,AMYTON,5431
8,Yorke and Mid North,ANAMA,5464
8,Yorke and Mid North,ANDREWS,5454
8,Yorke and Mid North,APOINGA,5413
8,Yorke and Mid North,APPILA,5480
8,Yorke and Mid North,ARDROSSAN,5571
8,Yorke and Mid North,ARMAGH,5453
8,Yorke and Mid North,ARTHURTON,5572
8,Yorke and Mid North,AUBURN,5451
8,Yorke and Mid North,AUSTRALIA PLAINS,5374
8,Yorke and Mid North,AVON,5501
8,Yorke and Mid North,BALAKLAVA,5461
8,Yorke and Mid North,BALDINA,5417
8,Yorke and Mid North,BALGOWAN,5573
8,Yorke and Mid North,BANGOR,5481
8,Yorke and Mid North,BARINIA,5453
8,Yorke and Mid North,BAROOTA,5495
8,Yorke and Mid North,BARUNGA GAP,5520
8,Yorke and Mid North,BEAUFORT,5550
8,Yorke and Mid North,BEETALOO VALLEY,5523
8,Yorke and Mid North,BELALIE EAST,5491
8,Yorke and Mid North,BELALIE NORTH,5491
8,Yorke and Mid North,BELTON,5432
8,Yorke and Mid North,THE PINES,5577
8,Yorke and Mid North,BENBOURNIE,5453
8,Yorke and Mid North,BLACK POINT,5571
8,Yorke and Mid North,BLACK ROCK,5431
8,Yorke and Mid North,BLACK SPRINGS,5413
8,Yorke and Mid North,BLUFF BEACH,5575
8,Yorke and Mid North,BLYTH,5462
8,Yorke and Mid North,BOCONNOC PARK,5453
8,Yorke and Mid North,BOOBOROWIE,5417
8,Yorke and Mid North,BOOLEROO CENTRE,5482
8,Yorke and Mid North,BOORS PLAIN,5554
8,Yorke and Mid North,BOWER,5374
8,Yorke and Mid North,BOWILLIA,5461
8,Yorke and Mid North,BOWMANS,5550
8,Yorke and Mid North,BRADY CREEK,5381
8,Yorke and Mid North,BRENTWOOD,5575
8,Yorke and Mid North,BRIGHT,5381
8,Yorke and Mid North,BRINKWORTH,5464
8,Yorke and Mid North,BROUGHTON RIVER VALLEY,5454
8,Yorke and Mid North,BROWNLOW,5374
8,Yorke and Mid North,BRUCE,5433
8,Yorke and Mid North,BUCHANAN,5374
8,Yorke and Mid North,BUMBUNGA,5520
8,Yorke and Mid North,BUNDALEER GARDENS,5491
8,Yorke and Mid North,BUNDALEER NORTH,5491
8,Yorke and Mid North,BUNDEY,5320
8,Yorke and Mid North,BUNGAMA,5540
8,Yorke and Mid North,BUNGAREE,5464
8,Yorke and Mid North,BURNSFIELD,5520
8,Yorke and Mid North,BURRA,5417
8,Yorke and Mid North,BURRA EASTERN DISTRICTS,5417
8,Yorke and Mid North,BUTE,5560
8,Yorke and Mid North,CALTOWIE,5490
8,Yorke and Mid North,CALTOWIE NORTH,5490
8,Yorke and Mid North,CALTOWIE WEST,5490
8,Yorke and Mid North,CANOWIE,5419
8,Yorke and Mid North,CANOWIE BELT,5420
8,Yorke and Mid North,CARRIETON,5432
8,Yorke and Mid North,CAVENAGH,5422
8,Yorke and Mid North,CHINAMAN WELLS,5573
8,Yorke and Mid North,CLARE,5453
8,Yorke and Mid North,CLEMENTS GAP,5523
8,Yorke and Mid North,CLINTON,5570
8,Yorke and Mid North,CLINTON CENTRE,5570
8,Yorke and Mid North,COLLINSFIELD,5555
8,Yorke and Mid North,COLLINSVILLE,5418
8,Yorke and Mid North,CONDOWIE,5464
8,Yorke and Mid North,COOBOWIE,5583
8,Yorke and Mid North,COOMOOROO,5431
8,Yorke and Mid North,COONAMIA,5540
8,Yorke and Mid North,CORNY POINT,5575
8,Yorke and Mid North,COUCH BEACH,5577
8,Yorke and Mid North,CROSS ROADS,5558
8,Yorke and Mid North,CRYSTAL BROOK,5523
8,Yorke and Mid North,CUNLIFFE,5554
8,Yorke and Mid North,CUNNINGHAM,5571
8,Yorke and Mid North,CURRAMULKA,5580
8,Yorke and Mid North,DALKEY,5461
8,Yorke and Mid North,DAWSON,5422
8,Yorke and Mid North,DOWLINGVILLE,5571
8,Yorke and Mid North,DUTTON,5356
8,Yorke and Mid North,EAST MOONTA,5558
8,Yorke and Mid North,EDITHBURGH,5583
8,Yorke and Mid North,EMU DOWNS,5381
8,Yorke and Mid North,EMU FLAT,5453
8,Yorke and Mid North,ERITH,5461
8,Yorke and Mid North,ERSKINE,5422
8,Yorke and Mid North,EUDUNDA,5374
8,Yorke and Mid North,EURELIA,5431
8,Yorke and Mid North,EUROMINA,5454
8,Yorke and Mid North,EVERARD CENTRAL,5461
8,Yorke and Mid North,FARRELL FLAT,5416
8,Yorke and Mid North,FISHERMAN BAY,5522
8,Yorke and Mid North,FOUL BAY,5577
8,Yorke and Mid North,FRANKLYN,5421
8,Yorke and Mid North,FRANKTON,5374
8,Yorke and Mid North,GEORGETOWN,5472
8,Yorke and Mid North,GERANIUM PLAINS,5381
8,Yorke and Mid North,GERMEIN BAY,5495
8,Yorke and Mid North,GILES CORNER,5411
8,Yorke and Mid North,GILLENTOWN,5453
8,Yorke and Mid North,GLADSTONE,5473
8,Yorke and Mid North,GOYDER,5461
8,Yorke and Mid North,GULNARE,5471
8,Yorke and Mid North,GUM CREEK,5417
8,Yorke and Mid North,HACKLINS CORNER,5454
8,Yorke and Mid North,HALBURY,5461
8,Yorke and Mid North,HALLELUJAH HILLS,5381
8,Yorke and Mid North,HALLETT,5419
8,Yorke and Mid North,HAMLEY,5558
8,Yorke and Mid North,HAMLEY BRIDGE,5401
8,Yorke and Mid North,HAMMOND,5431
8,Yorke and Mid North,HAMPDEN,5374
8,Yorke and Mid North,HANSBOROUGH,5374
8,Yorke and Mid North,HANSON,5417
8,Yorke and Mid North,HARDWICKE BAY,5575
8,Yorke and Mid North,HARDY,5422
8,Yorke and Mid North,HART,5464
8,Yorke and Mid North,HILL RIVER,5453
8,Yorke and Mid North,HILLTOWN,5455
8,Yorke and Mid North,HONITON,5576
8,Yorke and Mid North,HOPE GAP,5555
8,Yorke and Mid North,HORNSDALE,5491
8,Yorke and Mid North,HOSKIN CORNER,5461
8,Yorke and Mid North,HOYLETON,5453
8,Yorke and Mid North,HUDDLESTON,5523
8,Yorke and Mid North,INKERMAN,5550
8,Yorke and Mid North,INNESTON,5577
8,Yorke and Mid North,JAMES WELL,5571
8,Yorke and Mid North,JAMESTOWN,5491
8,Yorke and Mid North,JERICHO,5554
8,Yorke and Mid North,JERUSALEM,5554
8,Yorke and Mid North,JOHNBURGH,5431
8,Yorke and Mid North,JULIA,5374
8,Yorke and Mid North,KADINA,5554
8,Yorke and Mid North,KAINTON,5552
8,Yorke and Mid North,KALLORA,5550
8,Yorke and Mid North,KOOLUNGA,5464
8,Yorke and Mid North,KOOLYWURTIE,5575
8,Yorke and Mid North,KOONOONA,5417
8,Yorke and Mid North,KOOROONA,5558
8,Yorke and Mid North,KULPARA,5552
8,Yorke and Mid North,KYBUNGA,5453
8,Yorke and Mid North,LAKE VIEW,5555
8,Yorke and Mid North,LAURA,5480
8,Yorke and Mid North,LEASINGHAM,5452
8,Yorke and Mid North,LEIGHTON,5417
8,Yorke and Mid North,LOCHIEL,5510
8,Yorke and Mid North,LOWER BROUGHTON,5540
8,Yorke and Mid North,MAITLAND,5573
8,Yorke and Mid North,MAMBRAY CREEK,5495
8,Yorke and Mid North,MANNANARIE,5422
8,Yorke and Mid North,MANOORA,5414
8,Yorke and Mid North,MARION BAY,5575
8,Yorke and Mid North,MAROLA,5464
8,Yorke and Mid North,MARRABEL,5413
8,Yorke and Mid North,MATTA FLAT,5554
8,Yorke and Mid North,MAYFIELD,5454
8,Yorke and Mid North,MELROSE,5483
8,Yorke and Mid North,MELTON,5552
8,Yorke and Mid North,MERRITON,5523
8,Yorke and Mid North,MINBURRA,5431
8,Yorke and Mid North,MINLATON,5575
8,Yorke and Mid North,MINTARO,5415
8,Yorke and Mid North,MINVALARA,5422
8,Yorke and Mid North,MONGOLATA,5417
8,Yorke and Mid North,MOOCKRA,5432
8,Yorke and Mid North,MOONTA,5558
8,Yorke and Mid North,MOONTA BAY,5558
8,Yorke and Mid North,MOONTA MINES,5558
8,Yorke and Mid North,MORCHARD,5431
8,Yorke and Mid North,MOUNT BRYAN,5418
8,Yorke and Mid North,MOUNT BRYAN EAST,5419
8,Yorke and Mid North,MOUNT TEMPLETON,5461
8,Yorke and Mid North,MUNDOORA,5555
8,Yorke and Mid North,MURRAY TOWN,5481
8,Yorke and Mid North,NACKARA,5440
8,Yorke and Mid North,NALYAPPA,5558
8,Yorke and Mid North,NANTAWARRA,5550
8,Yorke and Mid North,NAPPERBY,5540
8,Yorke and Mid North,NARRIDY,5523
8,Yorke and Mid North,NEALES FLAT,5374
8,Yorke and Mid North,NECTAR BROOK,5495
8,Yorke and Mid North,NELSHABY,5540
8,Yorke and Mid North,NEW TOWN,5554
8,Yorke and Mid North,NGAPALA,5374
8,Yorke and Mid North,NINNES,5560
8,Yorke and Mid North,NORTH BEACH,5556
8,Yorke and Mid North,NORTH BOOBOROWIE,5417
8,Yorke and Mid North,NORTH MOONTA,5558
8,Yorke and Mid North,NORTH YELTA,5558
8,Yorke and Mid North,NUROM,5523
8,Yorke and Mid North,OODLA WIRRA,5422
8,Yorke and Mid North,ORROROO,5431
8,Yorke and Mid North,OWEN,5460
8,Yorke and Mid North,PARAMATTA,5558
8,Yorke and Mid North,PARATOO,5422
8,Yorke and Mid North,PARNAROO,5422
8,Yorke and Mid North,PASKEVILLE,5552
8,Yorke and Mid North,PEEP HILL,5374
8,Yorke and Mid North,PEKINA,5431
8,Yorke and Mid North,PENWORTHAM,5453
8,Yorke and Mid North,PETERBOROUGH,5422
8,Yorke and Mid North,PETERSVILLE,5571
8,Yorke and Mid North,PINE CREEK,5419
8,Yorke and Mid North,PINE POINT,5571
8,Yorke and Mid North,PINERY,5460
8,Yorke and Mid North,PIRIE EAST,5540
8,Yorke and Mid North,POINT PASS,5374
8,Yorke and Mid North,POINT PEARCE,5573
8,Yorke and Mid North,POINT SOUTTAR,5577
8,Yorke and Mid North,POINT TURTON,5575
8,Yorke and Mid North,POLISH HILL RIVER,5453
8,Yorke and Mid North,PORT ARTHUR,5552
8,Yorke and Mid North,PORT BROUGHTON,5522
8,Yorke and Mid North,PORT DAVIS,5540
8,Yorke and Mid North,PORT GERMEIN,5495
8,Yorke and Mid North,PORT HUGHES,5558
8,Yorke and Mid North,PORT JULIA,5580
8,Yorke and Mid North,PORT MOOROWIE,5576
8,Yorke and Mid North,PORT PIRIE,5540
8,Yorke and Mid North,PORT PIRIE SOUTH,5540
8,Yorke and Mid North,PORT PIRIE WEST,5540
8,Yorke and Mid North,PORT RICKABY,5575
8,Yorke and Mid North,PORT VICTORIA,5573
8,Yorke and Mid North,PORT VINCENT,5581
8,Yorke and Mid North,PORT WAKEFIELD,5550
8,Yorke and Mid North,PORTER LAGOON,5416
8,Yorke and Mid North,PRICE,5570
8,Yorke and Mid North,PROOF RANGE,5550
8,Yorke and Mid North,RAMSAY,5575
8,Yorke and Mid North,REDHILL,5521
8,Yorke and Mid North,RHYNIE,5412
8,Yorke and Mid North,RISDON PARK,5540
8,Yorke and Mid North,RISDON PARK SOUTH,5540
8,Yorke and Mid North,RIVERTON,5412
8,Yorke and Mid North,ROBERTSTOWN,5381
8,Yorke and Mid North,ROCHESTER,5464
8,Yorke and Mid North,ROCKY PLAIN,5381
8,Yorke and Mid North,ROGUES POINT,5571
8,Yorke and Mid North,SADDLEWORTH,5413
8,Yorke and Mid North,SAINTS,5461
8,Yorke and Mid North,SALTER SPRINGS,5401
8,Yorke and Mid North,SANDILANDS,5571
8,Yorke and Mid North,SEVENHILL,5453
8,Yorke and Mid North,SHEAOAK FLAT,5581
8,Yorke and Mid North,SNOWTOWN,5520
8,Yorke and Mid North,SOLOMONTOWN,5540
8,Yorke and Mid North,SOUTH HUMMOCKS,5550
8,Yorke and Mid North,SOUTH KILKERRAN,5573
8,Yorke and Mid North,SPALDING,5454
8,Yorke and Mid North,SPRING FARM,5453
8,Yorke and Mid North,SPRING GULLY,5453
8,Yorke and Mid North,STANLEY,5415
8,Yorke and Mid North,STANLEY FLAT,5453
8,Yorke and Mid North,STANSBURY,5582
8,Yorke and Mid North,STEELTON,5413
8,Yorke and Mid North,STOCKPORT,5410
8,Yorke and Mid North,STOCKYARD CREEK,5460
8,Yorke and Mid North,STONE HUT,5480
8,Yorke and Mid North,STOW,5461
8,Yorke and Mid North,SULTANA POINT,5583
8,Yorke and Mid North,SUNNYBRAE,5422
8,Yorke and Mid North,SUNNYVALE,5552
8,Yorke and Mid North,SUTHERLANDS,5374
8,Yorke and Mid North,TARCOWIE,5431
8,Yorke and Mid North,TARLEE,5411
8,Yorke and Mid North,TARNMA,5413
8,Yorke and Mid North,TELOWIE,5540
8,Yorke and Mid North,TEROWIE,5421
8,Yorke and Mid North,THOMAS PLAIN,5554
8,Yorke and Mid North,THRINGTON,5552
8,Yorke and Mid North,TICKERA,5555
8,Yorke and Mid North,TIDDY WIDDY BEACH,5571
8,Yorke and Mid North,TOTHILL BELT,5413
8,Yorke and Mid North,TOTHILL CREEK,5413
8,Yorke and Mid North,UCOLTA,5422
8,Yorke and Mid North,ULOOLOO,5419
8,Yorke and Mid North,UNDALYA,5451
8,Yorke and Mid North,URANIA,5573
8,Yorke and Mid North,WALLAROO,5556
8,Yorke and Mid North,WALLAROO MINES,5554
8,Yorke and Mid North,WALLAROO PLAIN,5556
8,Yorke and Mid North,WALLOWAY,5431
8,Yorke and Mid North,WANDEARAH EAST,5523
8,Yorke and Mid North,WANDEARAH WEST,5523
8,Yorke and Mid North,WARBURTO,5556
8,Yorke and Mid North,WARD HILL,5522
8,Yorke and Mid North,WARNERTOWN,5540
8,Yorke and Mid North,WAROOKA,5577
8,Yorke and Mid North,WASHPOOL,5454
8,Yorke and Mid North,WATCHMAN,5461
8,Yorke and Mid North,WATERLOO,5413
8,Yorke and Mid North,WATERVALE,5452
8,Yorke and Mid North,WAURALTEE,5573
8,Yorke and Mid North,WEEROONA ISLAND,5495
8,Yorke and Mid North,WEETULTA,5573
8,Yorke and Mid North,WEST BUNDALEER,5491
8,Yorke and Mid North,WHITE HUT,5575
8,Yorke and Mid North,WHITWARTA,5461
8,Yorke and Mid North,WHYTE YARCOWIE,5420
8,Yorke and Mid North,WILLALO,5419
9,Barossa,GRACE PLAINS,5502
9,Barossa,KINGSFORD,5118
9,Barossa,KAPUNDA,5373
9,Barossa,KANGAROO FLAT,5118
9,Barossa,KALBEEBA,5118
9,Barossa,HILLIER,5116
9,Barossa,HEWETT,5118
9,Barossa,HAMILTON,5373
9,Barossa,GREENOCK,5360
9,Barossa,GOMERSAL,5352
9,Barossa,GAWLER WEST,5118
9,Barossa,GAWLER SOUTH,5118
9,Barossa,GAWLER RIVER,5118
9,Barossa,GAWLER EAST,5118
9,Barossa,GAWLER BELT,5118
9,Barossa,GAWLER,5118
9,Barossa,FREELING,5372
9,Barossa,FORDS,5373
9,Barossa,FLAXMAN VALLEY,5235
9,Barossa,FISCHER,5502
9,Barossa,EVANSTON SOUTH,5116
9,Barossa,EVANSTON PARK,5116
9,Barossa,EVANSTON GARDENS,5116
9,Barossa,EVANSTON,5116
9,Barossa,EDEN VALLEY,5235
9,Barossa,EBENEZER,5355
9,Barossa,DUBLIN,5501
9,Barossa,DAVEYSTON,5355
9,Barossa,CROMER,5235
9,Barossa,CONCORDIA,5118
9,Barossa,COCKATOO VALLEY,5351
9,Barossa,CALOMBA,5501
9,Barossa,BUCHFELDE,5118
9,Barossa,BETHEL,5373
9,Barossa,BETHANY,5352
9,Barossa,BAROSSA GOLDFIELDS,5351
9,Barossa,BARABBA,5460
9,Barossa,BAGOT WELL,5373
9,Barossa,ANGASTON,5353
9,Barossa,ALTONA,5351
9,Barossa,ALLENDALE NORTH,5373
9,Barossa,KOONUNGA,5373
9,Barossa,KORUNYE,5502
9,Barossa,KRONDORF,5352
9,Barossa,KUDLA,5115
9,Barossa,LEWISTON,5501
9,Barossa,LIGHT PASS,5355
9,Barossa,LINWOOD,5410
9,Barossa,LONG PLAINS,5501
9,Barossa,LOWER LIGHT,5501
9,Barossa,LYNDOCH,5351
9,Barossa,MAGDALA,5400
9,Barossa,MALLALA,5502
9,Barossa,MARANANGA,5355
9,Barossa,MIDDLE BEACH,5501
9,Barossa,MOCULTA,5353
9,Barossa,MOPPA,5355
9,Barossa,MORN HILL,5371
9,Barossa,MOUNT CRAWFORD,5351
9,Barossa,MOUNT MCKENZIE,5353
9,Barossa,MOUNT PLEASANT,5235
9,Barossa,NAIN,5360
9,Barossa,NURIOOTPA,5355
9,Barossa,PARHAM,5501
9,Barossa,PENRICE,5353
9,Barossa,PEWSEY VALE,5351
9,Barossa,PINKERTON PLAINS,5400
9,Barossa,PORT GAWLER,5501
9,Barossa,REDBANKS,5502
9,Barossa,REEVES PLAINS,5502
9,Barossa,REID,5118
9,Barossa,ROSEDALE,5350
9,Barossa,ROSEWORTHY,5371
9,Barossa,ROWLAND FLAT,5352
9,Barossa,SANDY CREEK,5350
9,Barossa,SEPPELTSFIELD,5355
9,Barossa,SHEA-OAK LOG,5371
9,Barossa,SPRINGTON,5235
9,Barossa,ST JOHNS,5373
9,Barossa,ST KITTS,5356
9,Barossa,STOCKWELL,5355
9,Barossa,STONE WELL,5352
9,Barossa,TANUNDA,5352
9,Barossa,TAUNTON,5235
9,Barossa,TEMPLERS,5371
9,Barossa,THOMPSON BEACH,5501
9,Barossa,TWO WELLS,5501
9,Barossa,VINE VALE,5352
9,Barossa,WARD BELT,5118
9,Barossa,WASLEYS,5400
9,Barossa,WEBB BEACH,5501
9,Barossa,WILD HORSE PLAINS,5501
9,Barossa,WILLASTON,5118
9,Barossa,WILLIAMSTOWN,5351
9,Barossa,WINDSOR,5501
9,Barossa,WOOLSHEDS,5400
10,Fleurieu and Kangaroo Island,IRONSTONE,5222
10,Fleurieu and Kangaroo Island,KYEEMA,5172
10,Fleurieu and Kangaroo Island,KUITPO COLONY,5172
10,Fleurieu and Kangaroo Island,KUITPO,5201
10,Fleurieu and Kangaroo Island,KOHINOOR,5223
10,Fleurieu and Kangaroo Island,KINGSCOTE,5223
10,Fleurieu and Kangaroo Island,KARATTA,5223
10,Fleurieu and Kangaroo Island,KANGAROO HEAD,5222
10,Fleurieu and Kangaroo Island,ISLAND BEACH,5222
10,Fleurieu and Kangaroo Island,INMAN VALLEY,5211
10,Fleurieu and Kangaroo Island,HINDMARSH TIERS,5202
10,Fleurieu and Kangaroo Island,HOPE FOREST,5172
10,Fleurieu and Kangaroo Island,HINDMARSH VALLEY,5211
10,Fleurieu and Kangaroo Island,POINT STURT,5256
10,Fleurieu and Kangaroo Island,PORKY FLAT,5222
10,Fleurieu and Kangaroo Island,PORT ELLIOT,5212
10,Fleurieu and Kangaroo Island,RAPID BAY,5204
10,Fleurieu and Kangaroo Island,RED CREEK,5255
10,Fleurieu and Kangaroo Island,SALEM,5255
10,Fleurieu and Kangaroo Island,SANDERGROVE,5255
10,Fleurieu and Kangaroo Island,SAPPHIRETOWN,5222
10,Fleurieu and Kangaroo Island,SEAL BAY,5223
10,Fleurieu and Kangaroo Island,SECOND VALLEY,5204
10,Fleurieu and Kangaroo Island,SEDDON,5223
10,Fleurieu and Kangaroo Island,SILVERTON,5204
10,Fleurieu and Kangaroo Island,STOKES BAY,5223
10,Fleurieu and Kangaroo Island,STRATHALBYN,5255
10,Fleurieu and Kangaroo Island,STUN'SAIL BOOM,5223
10,Fleurieu and Kangaroo Island,TOLDEROL,5256
10,Fleurieu and Kangaroo Island,TOOPERANG,5255
10,Fleurieu and Kangaroo Island,TORRENS VALE,5203
10,Fleurieu and Kangaroo Island,TUNKALILLA,5203
10,Fleurieu and Kangaroo Island,CYGNET RIVER,5223
10,Fleurieu and Kangaroo Island,DE MOLE RIVER,5223
10,Fleurieu and Kangaroo Island,DEEP CREEK,5204
10,Fleurieu and Kangaroo Island,DELAMERE,5204
10,Fleurieu and Kangaroo Island,D'ESTREES BAY,5223
10,Fleurieu and Kangaroo Island,DINGABLEDINGA,5172
10,Fleurieu and Kangaroo Island,DUDLEY EAST,5222
10,Fleurieu and Kangaroo Island,DUDLEY WEST,5222
10,Fleurieu and Kangaroo Island,DUNCAN,5223
10,Fleurieu and Kangaroo Island,EMU BAY,5223
10,Fleurieu and Kangaroo Island,ENCOUNTER BAY,5211
10,Fleurieu and Kangaroo Island,FINNISS,5255
10,Fleurieu and Kangaroo Island,FLINDERS CHASE,5223
10,Fleurieu and Kangaroo Island,GEMMELLS,5255
10,Fleurieu and Kangaroo Island,GOOLWA,5214
10,Fleurieu and Kangaroo Island,GOOLWA BEACH,5214
10,Fleurieu and Kangaroo Island,GOOLWA NORTH,5214
10,Fleurieu and Kangaroo Island,GOOLWA SOUTH,5214
10,Fleurieu and Kangaroo Island,GOSSE,5223
10,Fleurieu and Kangaroo Island,HAINES,5223
10,Fleurieu and Kangaroo Island,HARTLEY,5255
10,Fleurieu and Kangaroo Island,HAY FLAT,5204
10,Fleurieu and Kangaroo Island,HAYBOROUGH,5211
10,Fleurieu and Kangaroo Island,HIGHLAND VALLEY,5255
10,Fleurieu and Kangaroo Island,HINDMARSH ISLAND,5214
10,Fleurieu and Kangaroo Island,CUTTLEFISH BAY,5222
10,Fleurieu and Kangaroo Island,CURRENCY CREEK,5214
10,Fleurieu and Kangaroo Island,CLAYTON BAY,5256
10,Fleurieu and Kangaroo Island,PENNESHAW,5222
10,Fleurieu and Kangaroo Island,PELICAN LAGOON,5222
10,Fleurieu and Kangaroo Island,PARNDANA,5220
10,Fleurieu and Kangaroo Island,PARIS CREEK,5201
10,Fleurieu and Kangaroo Island,PARAWA,5203
10,Fleurieu and Kangaroo Island,PAGES FLAT,5172
10,Fleurieu and Kangaroo Island,NURRAGI,5256
10,Fleurieu and Kangaroo Island,NORTH CAPE,5223
10,Fleurieu and Kangaroo Island,NORMANVILLE,5204
10,Fleurieu and Kangaroo Island,NEWLAND,5223
10,Fleurieu and Kangaroo Island,NEPEAN BAY,5223
10,Fleurieu and Kangaroo Island,NANGKITA,5210
10,Fleurieu and Kangaroo Island,MYPONGA BEACH,5202
10,Fleurieu and Kangaroo Island,MYPONGA,5202
10,Fleurieu and Kangaroo Island,MUSTON,5221
10,Fleurieu and Kangaroo Island,MUNDOO ISLAND,5214
10,Fleurieu and Kangaroo Island,MOUNT OBSERVATION,5255
10,Fleurieu and Kangaroo Island,MOUNT MAGNIFICENT,5210
10,Fleurieu and Kangaroo Island,MOUNT JAGGED,5211
10,Fleurieu and Kangaroo Island,MOUNT COMPASS,5210
10,Fleurieu and Kangaroo Island,MOSQUITO HILL,5214
10,Fleurieu and Kangaroo Island,CASSINI,5223
10,Fleurieu and Kangaroo Island,CARRICKALINGA,5204
10,Fleurieu and Kangaroo Island,CAPE JERVIS,5204
10,Fleurieu and Kangaroo Island,CAPE BORDA,5223
10,Fleurieu and Kangaroo Island,BROWNLOW KI,5223
10,Fleurieu and Kangaroo Island,BROWN BEACH,5222
10,Fleurieu and Kangaroo Island,BLETCHLEY,5255
10,Fleurieu and Kangaroo Island,BLACKFELLOWS CREEK,5201
10,Fleurieu and Kangaroo Island,BIRCHMORE,5223
10,Fleurieu and Kangaroo Island,BELVIDERE,5255
10,Fleurieu and Kangaroo Island,BAY OF SHOALS,5223
10,Fleurieu and Kangaroo Island,BAUDIN BEACH,5222
10,Fleurieu and Kangaroo Island,BALLAST HEAD,5221
10,Fleurieu and Kangaroo Island,BALD HILLS,5203
10,Fleurieu and Kangaroo Island,BACK VALLEY,5211
10,Fleurieu and Kangaroo Island,ASHBOURNE,5157
10,Fleurieu and Kangaroo Island,ANTECHAMBER BAY,5222
10,Fleurieu and Kangaroo Island,ANGAS PLAINS,5255
10,Fleurieu and Kangaroo Island,AMERICAN RIVER,5221
10,Fleurieu and Kangaroo Island,AMERICAN BEACH,5222
10,Fleurieu and Kangaroo Island,VICTOR HARBOR,5211
10,Fleurieu and Kangaroo Island,VIVONNE BAY,5223
10,Fleurieu and Kangaroo Island,WAITPINGA,5211
10,Fleurieu and Kangaroo Island,WATTLE FLAT,5203
10,Fleurieu and Kangaroo Island,WESTERN RIVER,5223
10,Fleurieu and Kangaroo Island,WILLOUGHBY,5222
10,Fleurieu and Kangaroo Island,WILLOW CREEK,5211
10,Fleurieu and Kangaroo Island,WILLSON RIVER,5222
10,Fleurieu and Kangaroo Island,WILLUNGA HILL,5172
10,Fleurieu and Kangaroo Island,WILLYAROO,5255
10,Fleurieu and Kangaroo Island,WIRRINA COVE,5204
10,Fleurieu and Kangaroo Island,WISANGER,5223
10,Fleurieu and Kangaroo Island,WOODCHESTER,5255
10,Fleurieu and Kangaroo Island,YANKALILLA,5203
10,Fleurieu and Kangaroo Island,YUNDI,5172
10,Fleurieu and Kangaroo Island,MONTARRA,5172
10,Fleurieu and Kangaroo Island,MILANG,5256
10,Fleurieu and Kangaroo Island,MIDDLETON,5213
10,Fleurieu and Kangaroo Island,MIDDLE RIVER,5223
10,Fleurieu and Kangaroo Island,MENZIES,5223
10,Fleurieu and Kangaroo Island,MCHARG CREEK,5157
10,Fleurieu and Kangaroo Island,MCCRACKEN,5211
10,Fleurieu and Kangaroo Island,MACGILLIVRAY,5223
10,Fleurieu and Kangaroo Island,LOWER INMAN VALLEY,5211
10,Fleurieu and Kangaroo Island,LANGHORNE CREEK,5255
10,Fleurieu and Kangaroo Island,LAKE PLAINS,5255
11,Northern Adelaide,CRAIGMORE,5114
11,Northern Adelaide,CLEARVIEW,5085
11,Northern Adelaide,CAVAN,5094
11,Northern Adelaide,BURTON,5110
11,Northern Adelaide,BUCKLAND PARK,5120
11,Northern Adelaide,BROADVIEW,5083
11,Northern Adelaide,BRAHMA LODGE,5109
11,Northern Adelaide,BOLIVAR,5110
11,Northern Adelaide,BLAKEVIEW,5114
11,Northern Adelaide,BLAIR ATHOL,5084
11,Northern Adelaide,BIBARINGA,5118
11,Northern Adelaide,BANKSIA PARK,5091
11,Northern Adelaide,ANGLE VALE,5117
11,Northern Adelaide,ANDREWS FARM,5114
11,Northern Adelaide,YATTALUNGA,5114
11,Northern Adelaide,YATALA VALE,5126
11,Northern Adelaide,WYNN VALE,5127
11,Northern Adelaide,WINDSOR GARDENS,5087
11,Northern Adelaide,WATERLOO CORNER,5110
11,Northern Adelaide,WALKLEY HEIGHTS,5098
11,Northern Adelaide,VISTA,5091
11,Northern Adelaide,VIRGINIA,5120
11,Northern Adelaide,VALLEY VIEW,5093
11,Northern Adelaide,ULEYBURY,5114
11,Northern Adelaide,TEA TREE GULLY,5091
11,Northern Adelaide,SURREY DOWNS,5126
11,Northern Adelaide,ST KILDA,5110
11,Northern Adelaide,ST AGNES,5097
11,Northern Adelaide,SMITHFIELD PLAINS,5114
11,Northern Adelaide,ELIZABETH NORTH,5113
11,Northern Adelaide,ELIZABETH PARK,5113
11,Northern Adelaide,ELIZABETH SOUTH,5112
11,Northern Adelaide,ELIZABETH VALE,5112
11,Northern Adelaide,ENFIELD,5085
11,Northern Adelaide,FAIRVIEW PARK,5126
11,Northern Adelaide,GEPPS CROSS,5094
11,Northern Adelaide,SMITHFIELD,5114
11,Northern Adelaide,SEFTON PARK,5083
11,Northern Adelaide,SAMPSON FLAT,5114
11,Northern Adelaide,SALISBURY SOUTH,5106
11,Northern Adelaide,SALISBURY PLAIN,5109
11,Northern Adelaide,SALISBURY PARK,5109
11,Northern Adelaide,SALISBURY NORTH,5108
11,Northern Adelaide,SALISBURY HEIGHTS,5109
11,Northern Adelaide,SALISBURY EAST,5109
11,Northern Adelaide,SALISBURY DOWNS,5108
11,Northern Adelaide,SALISBURY,5108
11,Northern Adelaide,RIDGEHAVEN,5097
11,Northern Adelaide,REDWOOD PARK,5097
11,Northern Adelaide,POORAKA,5095
11,Northern Adelaide,PENFIELD GARDENS,5121
11,Northern Adelaide,PENFIELD,5121
11,Northern Adelaide,PARALOWIE,5108
11,Northern Adelaide,PARAFIELD GARDENS,5107
11,Northern Adelaide,PARAFIELD,5106
11,Northern Adelaide,DAVOREN PARK,5113
11,Northern Adelaide,PARA VISTA,5093
11,Northern Adelaide,MANNINGHAM,5086
11,Northern Adelaide,MACDONALD PARK,5121
11,Northern Adelaide,LIGHTSVIEW,5085
11,Northern Adelaide,KLEMZIG,5087
11,Northern Adelaide,PARA HILLS WEST,5096
11,Northern Adelaide,KILBURN,5084
11,Northern Adelaide,INGLE FARM,5098
11,Northern Adelaide,HUMBUG SCRUB,5114
11,Northern Adelaide,HOPE VALLEY,5090
11,Northern Adelaide,HOLDEN HILL,5088
11,Northern Adelaide,HILLCREST,5086
11,Northern Adelaide,HILLBANK,5112
11,Northern Adelaide,HIGHBURY,5089
11,Northern Adelaide,HAMPSTEAD GARDENS,5086
11,Northern Adelaide,GULFVIEW HEIGHTS,5096
11,Northern Adelaide,GREENWITH,5125
11,Northern Adelaide,GREENACRES,5086
11,Northern Adelaide,GREEN FIELDS,5107
11,Northern Adelaide,GOULD CREEK,5114
11,Northern Adelaide,GOLDEN GROVE,5125
11,Northern Adelaide,GLOBE DERBY PARK,5110
11,Northern Adelaide,PARA HILLS,5096
11,Northern Adelaide,ONE TREE HILL,5114
11,Northern Adelaide,OAKDEN,5086
11,Northern Adelaide,NORTHGATE,5085
11,Northern Adelaide,NORTHFIELD,5085
11,Northern Adelaide,MUNNO PARA WEST,5115
11,Northern Adelaide,MUNNO PARA DOWNS,5115
11,Northern Adelaide,MODBURY NORTH,5092
11,Northern Adelaide,MODBURY HEIGHTS,5092
11,Northern Adelaide,MODBURY,5092
11,Northern Adelaide,MAWSON LAKES,5095
11,Northern Adelaide,ELIZABETH GROVE,5112
11,Northern Adelaide,ELIZABETH EAST,5112
11,Northern Adelaide,ELIZABETH DOWNS,5113
11,Northern Adelaide,GILLES PLAINS,5086
11,Northern Adelaide,ELIZABETH,5112
11,Northern Adelaide,EDINBURGH NORTH,5113
11,Northern Adelaide,EDINBURGH,5111
11,Northern Adelaide,DRY CREEK,5094
11,Northern Adelaide,DIREK,5110
11,Northern Adelaide,DERNANCOURT,5075
11,Northern Adelaide,MUNNO PARA,5115
12,Far North,TEPCO STATION,5440
12,Far North,THREE CREEKS,5432
12,Far North,THURLGA,5717
12,Far North,TIEYON,872
12,Far North,TIKALINA,5440
12,Far North,TODMORDEN,5734
12,Far North,UMBERATANA,5732
12,Far North,UMUWA,872
12,Far North,UNO,5717
12,Far North,UPALINNA,5434
12,Far North,WADNAMINGA,5440
12,Far North,WALLERBERDINA,5713
12,Far North,WAMI KATA,5700
12,Far North,WAROONEE,5422
12,Far North,WARRAWEENA,5730
12,Far North,WARTAKA,5715
12,Far North,WATARRU,872
12,Far North,WATINUMA,872
12,Far North,WAUKARINGA,5440
12,Far North,WEEKEROO,5440
12,Far North,WELBOURN HILL,5724
12,Far North,WERTALOONA,5732
12,Far North,WIAWERA,5440
12,Far North,WILCOWIE,5432
12,Far North,WILGENA,5719
12,Far North,WILKATANA STATION,5713
12,Far North,WILLIAM CREEK,5723
12,Far North,WILLIPPA,5432
12,Far North,WILLOCHRA,5433
12,Far North,WILLOW SPRINGS,5434
12,Far North,WINNININNIE,5440
12,Far North,WINNINOWIE,5700
12,Far North,WINTABATINYANA,5713
12,Far North,WINTINNA,5723
12,Far North,WIRRAMINNA,5719
12,Far North,WIRREALPA,5730
12,Far North,WITCHELINA,5731
12,Far North,WITCHITIE,5432
12,Far North,DAVENPORT,5700
12,Far North,CURNAMONA,5440
12,Far North,CULTANA,5700
12,Far North,CROWN POINT,5734
12,Far North,CRADOCK,5432
12,Far North,COWARIE,5733
12,Far North,CORUNNA STATION,5600
12,Far North,CORDILLO DOWNS,5731
12,Far North,COPLEY,5732
12,Far North,COOYERDOO,5600
12,Far North,COONDAMBO,5719
12,Far North,COOBER PEDY,5723
12,Far North,COMMONWEALTH HILL,5719
12,Far North,COCKBURN,5440
12,Far North,COMMISSARIAT POINT,5700
12,Far North,CLIFTON HILLS STATION,5733
12,Far North,CLAYTON STATION,5733
12,Far North,CARRIEWERLOO,5715
12,Far North,CALLANNA,5733
12,Far North,BURR WELL,5732
12,Far North,BUNGEROO,5641
12,Far North,BULLOO CREEK,5440
12,Far North,BULGUNNIA,5719
12,Far North,BUCKLEBOO,5641
12,Far North,BOSWORTH,5720
12,Far North,BOOLCOOMATTA,5440
12,Far North,BON BON,5719
12,Far North,BOLLARDS LAGOON,5731
12,Far North,ABMINGA STATION,5440
12,Far North,ALLANDALE STATION,5723
12,Far North,ALPANA,5730
12,Far North,ALTON DOWNS STATION,5733
12,Far North,AMATA,872
12,Far North,ANANGU PITJANTJATJARA YANKUNYTJATJARA,872
12,Far North,ANDAMOOKA,5722
12,Far North,ANDAMOOKA STATION,5722
12,Far North,ANGEPENA,5732
12,Far North,ANGORIGINA,5730
12,Far North,ANNA CREEK,5723
12,Far North,ARCKARINGA,5723
12,Far North,ARCOONA,5720
12,Far North,ARKAROOLA,5732
12,Far North,ARKAROOLA VILLAGE,5701
12,Far North,AYERS RANGE SOUTH,872
12,Far North,BARATTA,5432
12,Far North,BARNDIOOTA,5434
12,Far North,BELTANA,5730
12,Far North,BELTANA STATION,5730
12,Far North,BENDA,5440
12,Far North,BIBLIANDO,5432
12,Far North,BILLA KALINA,5720
12,Far North,BIMBOWRIE,5440
12,Far North,BINDARRAH,5440
12,Far North,BLACK HILL STATION,5434
12,Far North,BLANCHE HARBOR,5700
12,Far North,BLINMAN,5730
12,Far North,YUNYARINYI,872
12,Far North,YUNTA,5440
12,Far North,YUDNAPINNA,5715
12,Far North,YELTANA,5641
12,Far North,YARRAMBA,5440
12,Far North,YARRAH,5433
12,Far North,YARDEA,5717
12,Far North,YANKANINNA,5732
12,Far North,YALYMBOO,5715
12,Far North,YADLAMALKA,5713
12,Far North,WORUMBA,5434
12,Far North,WOOMERA,5720
12,Far North,WOOLTANA,5732
12,Far North,WOMPINIE,5440
12,Far North,WITJIRA,5734
12,Far North,DE ROSE HILL,872
12,Far North,DEVONBOROUGH DOWNS,5440
12,Far North,DULKANINNA,5733
12,Far North,EDIACARA,5730
12,Far North,EMEROO,5713
12,Far North,ERINGA,5734
12,Far North,ERUDINA,5440
12,Far North,ETADUNNA,5733
12,Far North,EVELYN DOWNS,5723
12,Far North,FARINA,5733
12,Far North,FARINA STATION,5733
12,Far North,FLINDERS RANGES,5434
12,Far North,FLORINA STATION,5440
12,Far North,FROME DOWNS,5440
12,Far North,GAMMON RANGES,5732
12,Far North,GAWLER RANGES,5655
12,Far North,GIDGEALPA,5731
12,Far North,GILLES DOWNS,5600
12,Far North,GLENDAMBO,5719
12,Far North,GRAMPUS,5440
12,Far North,GUM CREEK STATION,5730
12,Far North,HAWKER,5434
12,Far North,HILTABA,5717
12,Far North,HOLOWILIENA,5432
12,Far North,HOLOWILIENA SOUTH,5432
12,Far North,ILLEROO,5715
12,Far North,INGOMAR,5723
12,Far North,INNAMINCKA,5731
12,Far North,IRON BARON,5601
12,Far North,IRON KNOB,5601
12,Far North,ISLAND LAGOON,5713
12,Far North,IWANTJA,872
12,Far North,KALABITY,5440
12,Far North,KALAMURINA,5733
12,Far North,KALKA,872
12,Far North,KALKAROO,5440
12,Far North,KALTJITI,872
12,Far North,KANPI,872
12,Far North,KANYAKA,5434
12,Far North,KATUNGA STATION,5600
12,Far North,KINGOONYA,5719
12,Far North,KOKATHA,5717
12,Far North,KOLENDO,5717
12,Far North,KONDOOLKA,5717
12,Far North,KOONAMORE,5440
12,Far North,KOOTABERRA,5713
12,Far North,LAKE EVERARD,5717
12,Far North,LAKE EYRE,5733
12,Far North,LAKE FROME,5440
12,Far North,LAKE GAIRDNER,5717
12,Far North,LAKE GILLES,5600
12,Far North,LAKE HARRIS,5600
12,Far North,LAKE MACFARLANE,5717
12,Far North,LAKE TORRENS,5713
12,Far North,LAKE TORRENS STATION,5713
12,Far North,LAMBINA,872
12,Far North,LEIGH CREEK,5731
12,Far North,LEIGH CREEK STATION,5731
12,Far North,LINCOLN GAP,5715
12,Far North,LINDON,5731
12,Far North,LOCKES CLAYPAN,5655
12,Far North,LYNDHURST,5731
12,Far North,MABEL CREEK,5723
12,Far North,MACUMBA,5734
12,Far North,MAHANEWO,5717
12,Far North,MANNA HILL,5440
12,Far North,MANNERS WELL,5732
12,Far North,MANUNDA STATION,5440
12,Far North,MARLA,5724
12,Far North,MARREE,5733
12,Far North,MARREE STATION,5733
12,Far North,MARTINS WELL,5440
12,Far North,MCDOUALL PEAK,5723
12,Far North,MELTON STATION,5440
12,Far North,MERTY MERTY,5731
12,Far North,MIDDLEBACK RANGE,5600
12,Far North,MILLERS CREEK,5720
12,Far North,MIMILI,872
12,Far North,MINBURRA PLAIN,5431
12,Far North,MINBURRA STATION,5431
12,Far North,MINGARY,5440
12,Far North,MIRANDA,5700
12,Far North,MOOLAWATANA,5732
12,Far North,MOOLEULOOLOO,5440
12,Far North,MOOLOOLOO,5730
12,Far North,MOONAREE,5717
12,Far North,MOORILLAH,5730
12,Far North,MOTPENA,5730
12,Far North,MOUNT ARDEN,5713
12,Far North,MOUNT BARRY,5723
12,Far North,MOUNT CLARENCE STATION,5723
12,Far North,MOUNT EBA,5720
12,Far North,MOUNT FALKLAND,5730
12,Far North,MOUNT FREELING,5731
12,Far North,MOUNT HAVELOCK,5434
12,Far North,MOUNT IVE,5717
12,Far North,MOUNT LYNDHURST,5731
12,Far North,MOUNT SARAH,5734
12,Far North,MOUNT SERLE,5732
12,Far North,MOUNT VICTOR STATION,5440
12,Far North,MOUNT VIVIAN,5720
12,Far North,MOUNT WILLOUGHBY,5723
12,Far North,MULGA VIEW,5732
12,Far North,MULGARIA,5713
12,Far North,MULGATHING,5719
12,Far North,MULKA,5733
12,Far North,MULOORINA,5733
12,Far North,MULYUNGARIE,5440
12,Far North,MUNDALLIO,5700
12,Far North,MUNDI MUNDI,5440
12,Far North,MUNDOWDNA,5733
12,Far North,MUNGERANIE,5733
12,Far North,MURNPEOWIE,5731
12,Far North,MURPUTJA,872
12,Far North,MUTOOROO,5440
12,Far North,MYOLA STATION,5600
12,Far North,MYRTLE SPRINGS,5731
12,Far North,NARLABY,5655
12,Far North,NARRINA,5730
12,Far North,NEPABUNNA,5732
12,Far North,NETLEY GAP,5440
12,Far North,NILPENA,5730
12,Far North,NILPINNA STATION,5723
12,Far North,NONNING,5717
12,Far North,NORTH HILLS,5431
12,Far North,NORTH MOOLOOLOO,5732
12,Far North,NYAPARI,872
12,Far North,OAKDEN HILLS,5713
12,Far North,OLARY,5440
12,Far North,OLYMPIC DAM,5725
12,Far North,OODNADATTA,5734
12,Far North,ORATUNGA STATION,5730
12,Far North,OULNINA,5440
12,Far North,OULNINA PARK,5440
12,Far North,OUTALPA,5440
12,Far North,PANDIE PANDIE,5733
12,Far North,PANDURRA,5715
12,Far North,PARACHILNA,5730
12,Far North,PARAKYLIA,5720
12,Far North,PERNATTY,5713
12,Far North,PIMBA,5720
12,Far North,PINDA SPRINGS,5732
12,Far North,PINE CREEK STATION,5440
12,Far North,PINJARRA STATION,5680
12,Far North,PIPALYATJARA,872
12,Far North,PLUMBAGO,5440
12,Far North,PORT AUGUSTA,5700
12,Far North,PORT AUGUSTA WEST,5700
12,Far North,PORT PATERSON,5700
12,Far North,PRELINNA,5434
12,Far North,PUALCO RANGE,5440
12,Far North,PUKATJA,872
12,Far North,PUREBA,5680
12,Far North,PURPLE DOWNS,5720
12,Far North,PUTTAPA,5730
12,Far North,QUINYAMBIE,5440
12,Far North,QUORN,5433
12,Far North,ROXBY DOWNS,5725
12,Far North,ROXBY DOWNS STATION,5725
12,Far North,SALTIA,5433
12,Far North,SECRET ROCKS,5600
12,Far North,SHAGGY RIDGE,5434
12,Far North,SIAM,5717
12,Far North,SIMPSON DESERT,5734
12,Far North,SOUTH GAP,5713
12,Far North,STEPHENSTON,5433
12,Far North,STIRLING NORTH,5710
12,Far North,STRZELECKI DESERT,5731
12,Far North,STUARTS CREEK,5720
12,Far North,TARCOOLA,5701
